SPACEMOBILE-008         
1 69589U 26139A   26195.16185102 -.00000107  00000+0  10933-4 0  9993
2 69589  52.9946 140.0988 0005033  54.0321 306.1136 15.12801197  4065
SPACEMOBILE-009         
1 69590U 26139B   26195.16374056 -.00000070  00000+0  13084-4 0  9992
2 69590  52.9938 140.1052 0005276  49.9484 310.1969 15.12694533  4066
SPACEMOBILE-010         
1 69591U 26139C   26195.16673917  .00000048  00000+0  19806-4 0  9993
2 69591  52.9945 140.1266 0005195  41.7586 318.3801 15.12526359  4071
